#dP2024  2 17  0  0  0.00000000      96 __u+U IGS20 EXT  IAC
## 2301 518400.00000000   900.00000000 60357 0.0000000000000
+  119   C06C07C08C09C10C11C12C13C14C16C19C20C21C22C23C24C25
+        C26C27C28C29C30C32C33C34C35C36C37C38C39C40C41C42C43
+        C44C45C46E02E03E04E05E07E08E09E10E11E12E13E14E15E18
+        E19E21E24E25E26E27E30E31E33E34E36G01G02G03G04G05G06
+        G07G08G09G10G11G12G13G14G15G16G17G18G19G20G21G22G23
+        G24G25G26G27G28G29G30G31G32J02J03J04R01R02R03R04R05
+        R07R08R09R11R12R13R14R15R16R17R18R19R20R21R22R24R26
++        10 10  9 11 10 12 13  9  9 10  8  8  8  7  9  9  7
++         8  8  9  9  9  8  8  9  9  8  8 10 11 11  9  9  7
++         7  8  9  6  8  8  8  7 10  9  6  7  7  7  6  6  7
++        10  8  7  8  7  8  7  7  7  8  6  7  7  7  8  6  5
++         7  8  7  8  6  8  6  7  7  7  7  6  6  7  7  7  8
++         6  7  6  8  8  6  7  7  7  9  0  0  7  8  7  8 10
++         7  9  9  8  7  8  7  8  7  9  8  8 11  8  9  7  9
%c M  cc GPS ccc cccc cccc cccc cccc ccccc ccccc ccccc ccccc
%c cc cc ccc ccc cccc cccc cccc cccc ccccc ccccc ccccc ccccc
%f  0.0000000  0.000000000  0.00000000000  0.000000000000000
%f  0.0000000  0.000000000  0.00000000000  0.000000000000000
%i    0    0    0    0      0      0      0      0         0
%i    0    0    0    0      0      0      0      0         0
/* IAC                                ULTRA-RAPID PREDICTION
/* S/V CLOCKS ARE ALIGNED TO GNSS TIME                      
/* G:C1WC2W R:C1PC2P E:C1XC5X C:C2IC6I J:C1CC2S             
/* PCV:IGS20_2290 OL/AL:FES2004  NONE     YN ORB:CoN CLK:CoN
*  2024 02 17  3 15  0.00000000
PC06 -18086.936604  28330.998260  25325.399983    115.133401
PC07  -7458.835974  40148.790663  10989.133294   -813.973810
PC08  -1570.123232  22395.272384 -35648.157439     32.261135
PC09  -9008.337213  27412.096023  30970.323808   -500.646795
PC10  -1963.347339  42151.863259   5068.905577     81.874798
PC11 -22433.007843  15941.035233   4712.048001    414.606434
PC12 -19766.137344    336.664918  19734.261459    768.076092
PC13   6890.872682  26539.625765 -31760.381473    418.003800
PC14 -12489.084238  11717.939965 -22028.083431    207.686043
PC16 -20351.673745  27958.292089  24151.059243   -344.316022
PC19   7175.958202 -20429.114266  17618.495257   -926.148019
PC20  15375.723135  -2885.160370  23123.925057   -170.365292
PC21 -14966.128094 -18071.647039 -15067.821230   -962.026103
PC22  -5626.048955 -27271.637102   1603.132503   -106.936969
PC23   5308.700860  17416.209491  21141.233160   -780.665107
PC24 -26661.463723  -1513.758433   8124.493892    891.615625
PC25 -14300.221437  11801.196558  20846.766424    328.024571
PC26 -23348.053279 -12597.246314  -8734.065754   -250.308581
PC27  14510.029905   7925.709075 -22500.750843    272.267046
PC28   -611.730154  19665.200146 -19783.187521    207.154678
PC29  17301.882908 -21572.506698   3766.518081    242.814377
PC30  22452.793786  -9037.264096 -13920.236973    -26.181239
PC32  15117.868959  18038.374322  15024.191582   -568.810273
PC33  -7083.513425  20447.130035 -17623.355161   -949.402607
PC34 -22591.951611  10342.569834  12667.633561    371.003402
PC35    -36.390898 -19803.922254  19665.000409    431.824386
PC36  15012.234602 -11211.283485 -20664.821004    -12.245709
PC37  22753.563992  13310.358463   9120.042535   -936.846251
PC38 -10550.014061  20097.773455 -35472.158136    137.283469
PC39 -25266.115288  28364.960845  18106.287814     -7.184649
PC40 -12751.926175  37686.261626  14355.163036    -56.854669
PC41   5264.920285  27308.237649  -2331.852218   -891.970203
PC42 -15778.009746   1118.442856 -22941.533349   -453.753177
PC43 -17840.009214  21247.164036  -2887.621573     60.719984
PC44 -14736.313999  -7648.294898  22412.013691    386.821561
PC45  -5567.562406 -17349.464106 -21153.389721    -70.610390
PC46  26367.174699    909.030416  -9044.852106   -124.487885
PE02  18732.693716  -2214.305915 -22818.584129    104.033915
PE03  18547.708303 -13809.787148  18471.769504    -94.347118
PE04 -10930.486655  27454.839599  -1701.652327   -329.100374
PE05  15228.097425   7672.118520  24200.511848   4720.774172
PE07  -2675.193102 -25054.421748 -15520.461152   -104.186487
PE08  11334.548287 -27232.777941   2409.086059   -225.102099
PE09   2514.243552  25100.042535  15499.924182   -338.865718
PE10  -3774.127638  16553.511851 -24246.770530   -602.546242
PE11   8547.859627  14445.131206 -24387.833858   3242.084024
PE12 -14149.388452  16053.493838 -20437.833469   -909.729529
PE13  -7743.784703 -14595.054803  24566.561481    -20.213002
PE14 -18781.521389  18150.569497  12696.730731     41.605204
PE15  14734.466294 -15915.709588  20160.499381    -86.247595
PE18  19604.654455  -4944.720712 -19147.109800    335.546763
PE19 -18675.717256  11517.895469 -19856.633092   -600.121196
PE21 -22844.451573 -15492.457709  10689.881663   -579.421798
PE24  13387.322353  24979.490193   8475.630941   -602.540412
PE25  22793.496970  15782.116580 -10362.094318      0.987054
PE26 -25709.957871  -4471.914904  13973.963392    371.027781
PE27 -13762.612699 -24912.203047  -8165.951525   -276.668525
PE30   3628.892936 -19427.010748 -22059.929512     -5.095453
PE31  -3331.957493  19529.812493  21987.641230    -16.183851
PE33 -28409.084105   7555.961175  -3450.505390      7.707439
PE34  28232.244766  -7941.425786   4008.274416    -95.072035
PE36  25349.520989   4756.493667 -14530.869601   -187.021271
PG01   9032.456697  12882.027348 -21799.037497    169.861376
PG02    177.121201  15199.986585 -21261.166744   -484.254677
PG03   9978.324285  22258.300872 -10799.723723    198.070574
PG04    167.387638  23557.104608  12146.534097    293.587358
PG05    667.739604 -18165.024148  19159.371685   -162.107117
PG06  25910.782510  -5928.196605   1515.603343    404.053897
PG07  20467.935928   7511.474742  15976.436744    -63.776874
PG08  -4829.925986  25604.637471  -3867.813736   -167.411968
PG09  10354.152734  14005.773128  19954.871990     94.737583
PG10 -19927.314584  -5905.014985 -16518.219478      0.786651
PG11  20185.080035 -11853.716049  12530.725037   -578.388115
PG12  -7796.122722 -22964.006852 -11197.394897   -478.737699
PG13  13595.977197 -22433.746492   3098.821875    626.231625
PG14  20780.097545   9298.873347 -13813.227293    327.755630
PG15   1528.067471 -26153.402094  -4108.431291    128.498362
PG16  -8048.914212  13629.355920  20921.168137   -360.972008
PG17  15558.671549     98.351460 -21124.402709    716.738966
PG18 -21158.968614  -6375.069044  14882.847233   -557.254628
PG19  17540.604860  -8913.109022 -17853.799409    441.738346
PG20  12249.880034  -9794.099712  21482.201578    387.212366
PG21  -5099.397430  15971.703037 -19859.374979    134.650052
PG22  18026.201203   2355.377817 -18833.636879     29.966999
PG23 -20599.257659 -15631.162966  -6466.619655    157.825870
PG24   1473.948413 -16655.208890 -20977.171782   -432.971188
PG25 -16810.920629 -20675.614352  -2132.962254    488.812546
PG26 -16347.188498   5099.403872  20232.552530    189.394913
PG27 -12761.276899  21595.609243   7756.668416     -4.704013
PG28 -26022.903816   5068.909352  -1563.183402   -133.661065
PG29  -7713.627096 -16061.856491  19612.538162   -606.826165
PG30  25870.913458   -104.365931   6736.558658   -431.577718
PG31 -23619.859694   9797.341546   7699.672612   -227.794572
PG32 -16227.681281   3829.658602 -20424.985756   -612.031783
PJ02 -26639.719757  21968.927289  29308.608554     -2.059227
PJ03 -35340.984483  20613.004257  -5645.902800     -0.229657
PJ04      0.000000      0.000000      0.000000     50.885649
PR01   4725.272685 -20892.659933  13847.486158     77.378975
PR02  -2779.358023 -25195.359027  -3108.533669    -22.486954
PR03  -9509.197252 -15107.049910 -18197.969773     94.661371
PR04 -10523.492035   2910.880781 -23018.672631    223.765266
PR05  -6158.777127  19359.205941 -15394.040179    127.027694
PR07   9743.228227  14168.069508  18865.004431     75.991422
PR08  10624.468501  -3309.614955  23018.778382    -74.448195
PR09   9756.089585  14592.938017  18555.136091    170.415271
PR11  22220.757231   4504.347213 -11698.669430     34.077326
PR12   8687.429452  -7851.809961 -22642.562744     36.829585
PR13  -7264.390395 -14099.821505 -20000.149807    -44.425698
PR14 -21768.343750 -12638.024172  -4075.875202     26.071422
PR15 -21659.857297  -3653.304677  12976.446140     82.133283
PR16  -8847.475336   7620.146776  22676.497620     23.338995
PR17 -13327.782960  -3029.854530  21555.163363     61.868722
PR18 -21733.360407   8341.808547  10379.152747    127.779432
PR19 -20401.989706  14594.935019  -4615.148686   -266.100515
PR20  -4478.041941  13592.665667 -21090.756848   -108.386981
PR21  13425.764508   2909.852127 -21485.067514    -77.587948
PR22  22283.595842  -8302.724229  -9225.200189    108.477866
PR24   3137.703854 -13931.951855  21152.585796    -44.229199
PR26  10695.239859  -2253.308927  23070.625891   -197.997939
EOF
